[
  {
    "city": "Madrid",
    "ccaa": "Comunidad de Madrid",
    "address": "Calle de Alcalá",
    "number": "123",
    "zip": "28009",
    "phoneNumber": "+34 91 555 55 55"
  },
  {
    "city": "Barcelona",
    "ccaa": "Cataluña",
    "address": "Passeig de Gràcia",
    "number": "123",
    "zip": "08008",
    "phoneNumber": "+34 93 555 55 55"
  },
  {
    "city": "Sevilla",
    "ccaa": "Andalucía",
    "address": "Calle Sierpes",
    "number": "1",
    "zip": "41004",
    "phoneNumber": "+34 95 555 55 55"
  },
  {
    "city": "Valencia",
    "ccaa": "Comunidad Valenciana",
    "address": "Calle Colón",
    "number": "22",
    "zip": "46004",
    "phoneNumber": "+34 96 555 55 55"
  },
  {
    "city": "Bilbao",
    "ccaa": "País Vasco",
    "address": "Gran Vía Diego López de Haro",
    "number": "1",
    "zip": "48009",
    "phoneNumber": "+34 94 555 55 55"
  },
  {
    "city": "Málaga",
    "ccaa": "Andalucía",
    "address": "Calle Larios",
    "number": "1",
    "zip": "29005",
    "phoneNumber": "+34 95 555 55 55"
  },
  {
    "city": "Zaragoza",
    "ccaa": "Aragón",
    "address": "Calle del Coso",
    "number": "111",
    "zip": "50001",
    "phoneNumber": "+34 97 555 55 55"
  },
  {
    "city": "Palma de Mallorca",
    "ccaa": "Islas Baleares",
    "address": "Avinguda Jaume III",
    "number": "1",
    "zip": "07012",
    "phoneNumber": "+34 971 555 555"
  },
  {
    "city": "Granada",
    "ccaa": "Andalucía",
    "address": "Calle Elvira",
    "number": "123",
    "zip": "18010",
    "phoneNumber": "+34 958 555 555"
  },
  {
    "city": "San Sebastián",
    "ccaa": "País Vasco",
    "address": "Paseo de la Concha",
    "number": "1",
    "zip": "20007",
    "phoneNumber": "+34 94 555 55 55"
  },
  {
    "city": "Madrid",
    "ccaa": "Comunidad de Madrid",
    "address": "Calle de Alcalá",
    "number": "123",
    "zip": "28009",
    "phoneNumber": "+34 91 555 55 55"
  },
  {
    "city": "Barcelona",
    "ccaa": "Cataluña",
    "address": "Passeig de Gràcia",
    "number": "123",
    "zip": "08008",
    "phoneNumber": "+34 93 555 55 55"
  },
  {
    "city": "Sevilla",
    "ccaa": "Andalucía",
    "address": "Calle Sierpes",
    "number": "1",
    "zip": "41004",
    "phoneNumber": "+34 95 555 55 55"
  },
  {
    "city": "Valencia",
    "ccaa": "Comunidad Valenciana",
    "address": "Calle Colón",
    "number": "22",
    "zip": "46004",
    "phoneNumber": "+34 96 555 55 55"
  },
  {
    "city": "Bilbao",
    "ccaa": "País Vasco",
    "address": "Gran Vía Diego López de Haro",
    "number": "1",
    "zip": "48009",
    "phoneNumber": "+34 94 555 55 55"
  },
  {
    "city": "Málaga",
    "ccaa": "Andalucía",
    "address": "Calle Larios",
    "number": "1",
    "zip": "29005",
    "phoneNumber": "+34 95 555 55 55"
  },
  {
    "city": "Zaragoza",
    "ccaa": "Aragón",
    "address": "Calle del Coso",
    "number": "111",
    "zip": "50001",
    "phoneNumber": "+34 97 555 55 55"
  },
  {
    "city": "Palma de Mallorca",
    "ccaa": "Islas Baleares",
    "address": "Avinguda Jaume III",
    "number": "1",
    "zip": "07012",
    "phoneNumber": "+34 971 555 555"
  },
  {
    "city": "Granada",
    "ccaa": "Andalucía",
    "address": "Calle Elvira",
    "number": "123",
    "zip": "18010",
    "phoneNumber": "+34 958 555 555"
  },
  {
    "city": "San Sebastián",
    "ccaa": "País Vasco",
    "address": "Paseo de la Concha",
    "number": "1",
    "zip": "20007",
    "phoneNumber": "+34 94 555 55 55"
  },
  {
    "city": "Toledo",
    "ccaa": "Castilla-La Mancha",
    "address": "Calle del Comercio",
    "number": "4",
    "zip": "45001",
    "phoneNumber": "+34 925 555 555"
  }
]
